GPS BIIF-3  (PRN 24)    
1 38833U 12053A   26186.76314947  .00000067  00000+0  00000+0 0  9991
2 38833  53.5886 142.8384 0181407  66.0586 295.8053  2.00567790 99819
GPS BIIF-4  (PRN 27)    
1 39166U 13023A   26186.63061629 -.00000011  00000+0  00000+0 0  9991
2 39166  54.4899 268.2219 0141411  51.0972 310.2223  2.00563404 96251
GPS BIIF-5  (PRN 30)    
1 39533U 14008A   26185.63523742  .00000067  00000+0  00000+0 0  9991
2 39533  53.6568 148.6082 0084195 231.4719 127.7443  2.00560936 90032
GPS BIIF-6  (PRN 06)    
1 39741U 14026A   26186.90822378 -.00000068  00000+0  00000+0 0  9992
2 39741  56.4884 330.7891 0038111 326.0557  33.7048  2.00559646 88912
GPS BIIF-7  (PRN 09)    
1 40105U 14045A   26187.00001942 -.00000013  00000+0  00000+0 0  9997
2 40105  55.3649  87.7155 0034103 118.3151 242.0701  2.00559674 86455
GPS BIIF-8  (PRN 03)    
1 40294U 14068A   26183.37856302 -.00000059  00000+0  00000+0 0  9995
2 40294  56.9979  30.3698 0067370  71.1337 289.6561  2.00577219 85519
GPS BIIF-9  (PRN 26)    
1 40534U 15013A   26186.51085400  .00000087  00000+0  00000+0 0  9995
2 40534  53.1669 203.4197 0110024  40.2805 320.5705  2.00550305 82193
COSMOS 2485 (747)       
1 39155U 13019A   26186.21113416 -.00000011  00000+0  00000+0 0  9990
2 39155  65.4295  72.9996 0022949 232.3284 127.5298  2.13103534102669
COSMOS 2492 (754)       
1 39620U 14012A   26185.70073097 -.00000043  00000+0  00000+0 0  9999
2 39620  65.2863 313.3408 0010255 320.7541  39.1820  2.13103564 95618
COSMOS 2500 (755)       
1 40001U 14032A   26186.80877347 -.00000044  00000+0  00000+0 0  9999
2 40001  65.2211 313.0490 0007935 188.3536 171.6459  2.13106150 93859
COSMOS 2501 (702K)      
1 40315U 14075A   26186.60178169  .00000105  00000+0  00000+0 0  9995
2 40315  63.6180 189.7346 0022672 212.6730 147.2101  2.13101464 90240
GSAT0103 (GALILEO-FM3)  
1 38857U 12055A   26186.07331266  .00000001  00000+0  00000+0 0  9994
2 38857  55.8163 101.0549 0004125 308.6335  51.3483  1.70473389 85314
GSAT0201 (GALILEO 5)    
1 40128U 14050A   26186.20344625 -.00000032  00000+0  00000+0 0  9998
2 40128  48.8557 272.6971 1677026 180.0981 179.9258  1.85520009 78651
GSAT0202 (GALILEO 6)    
1 40129U 14050B   26186.99790342 -.00000031  00000+0  00000+0 0  9995
2 40129  48.8715 271.7502 1678483 180.8497 178.8850  1.85520580 80839
GSAT0203 (GALILEO 7)    
1 40544U 15017A   26184.63712330 -.00000075  00000+0  00000+0 0  9998
2 40544  56.7810 341.1480 0002385 260.5919  99.3760  1.70476291 69485
GSAT0204 (GALILEO 8)    
1 40545U 15017B   26185.47954683 -.00000073  00000+0  00000+0 0  9999
2 40545  56.7872 341.1436 0002451 236.0411 123.9323  1.70475782 32544
BEIDOU-2 IGSO-5 (C10)   
1 37948U 11073A   26183.72937883 -.00000128  00000+0  00000+0 0  9990
2 37948  47.6496 271.3544 0114527 222.0502 141.5350  1.00270596 53296
BEIDOU-2 G5 (C05)       
1 38091U 12008A   26187.15864093  .00000070  00000+0  00000+0 0  9997
2 38091   3.6180  69.5824 0007497 274.3244  56.0943  1.00268517 52552
BEIDOU-2 M3 (C11)       
1 38250U 12018A   26186.98223481 -.00000061  00000+0  00000+0 0  9996
2 38250  55.7406 304.2422 0020634 272.8880  86.8970  1.86230232 96295
BEIDOU-2 M4 (C12)       
1 38251U 12018B   26186.91456580 -.00000061  00000+0  00000+0 0  9998
2 38251  55.6400 303.4564 0011775 273.7013  86.1862  1.86229862 96291
BEIDOU-2 M6 (C14)       
1 38775U 12050B   26186.08726959 -.00000037  00000+0  00000+0 0  9996
2 38775  56.5596  62.3027 0013196   0.0067   0.0613  1.86230975 93644
BEIDOU-2 G6 (C02)       
1 38953U 12059A   26187.30615013 -.00000162  00000+0  00000+0 0  9996
2 38953   4.4669  73.3216 0009205 330.2502  74.9215  1.00269384 50109
LUCH 5A (SDCM/PRN 140)  
1 37951U 11074B   26186.89499545 -.00000040  00000+0  00000+0 0  9997
2 37951   8.7981  73.5344 0002632  49.8277 289.6722  1.00272638 53234
SES-5 (EGNOS/PRN 136)   
1 38652U 12036A   26187.07667603  .00000048  00000+0  00000+0 0  9995
2 38652   0.0475 315.2819 0002144 151.6577 209.7104  1.00273320 44643
GSAT-10 (GAGAN/PRN 128) 
1 38779U 12051B   26187.16340762 -.00000150  00000+0  00000+0 0  9991
2 38779   0.0430 239.0013 0007891 215.6937 331.2743  1.00269564 50280
LUCH 5B (SDCM/PRN 125)  
1 38977U 12061A   26186.92992786 -.00000128  00000+0  00000+0 0  9999
2 38977  10.5217  49.6926 0003323 137.7842  54.9775  1.00272165 49791
ASTRA 5B (EGNOS/PRN 123)
1 39617U 14011B   26187.29419007  .00000151  00000+0  00000+0 0  9994
2 39617   0.0703 306.4352 0001978 159.5968 307.6545  1.00270406 44850
LUCH 5V (SDCM/PRN 141)  
1 39727U 14023A   26186.83150275 -.00000256  00000+0  00000+0 0  9994
2 39727   5.1762  69.5595 0002699  61.6930 186.6219  1.00268623 44549
IRNSS-1A                
1 39199U 13034A   26186.73027412  .00000068  00000+0  00000+0 0  9993
2 39199  35.7606  63.6043 0017858 181.6646 356.4955  1.00280420 47558
IRNSS-1B                
1 39635U 14017A   26186.73010079  .00000137  00000+0  00000+0 0  9998
2 39635  28.8929 240.0829 0022969 195.5386 165.9835  1.00272765 44988
IRNSS-1C                
1 40269U 14061A   26186.81786662 -.00000151  00000+0  00000+0 0  9996
2 40269   6.5640  88.5760 0022122   4.4783 208.1781  1.00273822 42876
