OBJECT_NAME,OBJECT_ID,EPOCH,MEAN_MOTION,ECCENTRICITY,INCLINATION,RA_OF_ASC_NODE,ARG_OF_PERICENTER,MEAN_ANOMALY,EPHEMERIS_TYPE,CLASSIFICATION_TYPE,NORAD_CAT_ID,ELEMENT_SET_NO,REV_AT_EPOCH,BSTAR,MEAN_MOTION_DOT,MEAN_MOTION_DDOT
BEIDOU-2 IGSO-5 (C10),2011-073A,2026-07-02T17:30:18.330912,1.00270596,.01145273,47.6496,271.3544,222.0502,141.5350,0,U,37948,999,5329,0,-.128E-5,0
LUCH 5A (SDCM/PRN 140),2011-074B,2026-07-05T21:28:47.606880,1.00272638,.00026329,8.7981,73.5344,49.8277,289.6722,0,U,37951,999,5323,0,-.4E-6,0
BEIDOU-2 G5 (C05),2012-008A,2026-07-06T03:48:26.576352,1.00268517,.00074973,3.6180,69.5824,274.3244,56.0943,0,U,38091,999,5255,0,.7E-6,0
BEIDOU-2 M3 (C11),2012-018A,2026-07-05T23:34:25.087584,1.86230232,.0020634,55.7406,304.2422,272.8880,86.8970,0,U,38250,999,9629,0,-.61E-6,0
BEIDOU-2 M4 (C12),2012-018B,2026-07-05T21:56:58.485120,1.86229862,.00117754,55.6400,303.4564,273.7013,86.1862,0,U,38251,999,9629,0,-.61E-6,0
SES-5 (EGNOS/PRN 136),2012-036A,2026-07-06T01:50:24.808992,1.00273320,.0002144,0.0475,315.2819,151.6577,209.7104,0,U,38652,999,4464,0,.48E-6,0
BEIDOU-2 M6 (C14),2012-050B,2026-07-05T02:05:40.092576,1.86230975,.0013196,56.5596,62.3027,0.0067,0.0613,0,U,38775,999,9364,0,-.37E-6,0
GSAT-10 (GAGAN/PRN 128),2012-051B,2026-07-06T03:55:18.418368,1.00269564,.00078919,0.0430,239.0013,215.6937,331.2743,0,U,38779,999,5028,0,-.15E-5,0
GPS BIIF-3  (PRN 24),2012-053A,2026-07-05T18:18:56.114208,2.00567790,.01814078,53.5886,142.8384,66.0586,295.8053,0,U,38833,999,9981,0,.67E-6,0
GSAT0103 (GALILEO-FM3),2012-055A,2026-07-05T01:45:34.213824,1.70473389,.0004125,55.8163,101.0549,308.6335,51.3483,0,U,38857,999,8531,0,.1E-7,0
BEIDOU-2 G6 (C02),2012-059A,2026-07-06T07:20:51.371232,1.00269384,.00092052,4.4669,73.3216,330.2502,74.9215,0,U,38953,999,5010,0,-.162E-5,0
LUCH 5B (SDCM/PRN 125),2012-061A,2026-07-05T22:19:05.767104,1.00272165,.00033231,10.5217,49.6926,137.7842,54.9775,0,U,38977,999,4979,0,-.128E-5,0
COSMOS 2485 (747),2013-019A,2026-07-05T05:04:01.991424,2.13103534,.0022949,65.4295,72.9996,232.3284,127.5298,0,U,39155,999,10266,0,-.11E-6,0
GPS BIIF-4  (PRN 27),2013-023A,2026-07-05T15:08:05.247456,2.00563404,.01414117,54.4899,268.2219,51.0972,310.2223,0,U,39166,999,9625,0,-.11E-6,0
IRNSS-1A,2013-034A,2026-07-05T17:31:35.683968,1.00280420,.00178584,35.7606,63.6043,181.6646,356.4955,0,U,39199,999,4755,0,.68E-6,0
GPS BIIF-5  (PRN 30),2014-008A,2026-07-04T15:14:44.513088,2.00560936,.0084195,53.6568,148.6082,231.4719,127.7443,0,U,39533,999,9003,0,.67E-6,0
ASTRA 5B (EGNOS/PRN 123),2014-011B,2026-07-06T07:03:38.022048,1.00270406,.00019785,0.0703,306.4352,159.5968,307.6545,0,U,39617,999,4485,0,.151E-5,0
COSMOS 2492 (754),2014-012A,2026-07-04T16:49:03.155808,2.13103564,.0010255,65.2863,313.3408,320.7541,39.1820,0,U,39620,999,9561,0,-.43E-6,0
IRNSS-1B,2014-017A,2026-07-05T17:31:20.708256,1.00272765,.00229695,28.8929,240.0829,195.5386,165.9835,0,U,39635,999,4498,0,.137E-5,0
LUCH 5V (SDCM/PRN 141),2014-023A,2026-07-05T19:57:21.837600,1.00268623,.00026998,5.1762,69.5595,61.6930,186.6219,0,U,39727,999,4454,0,-.256E-5,0
GPS BIIF-6  (PRN 06),2014-026A,2026-07-05T21:47:50.534592,2.00559646,.00381111,56.4884,330.7891,326.0557,33.7048,0,U,39741,999,8891,0,-.68E-6,0
COSMOS 2500 (755),2014-032A,2026-07-05T19:24:38.027808,2.13106150,.00079353,65.2211,313.0490,188.3536,171.6459,0,U,40001,999,9385,0,-.44E-6,0
GPS BIIF-7  (PRN 09),2014-045A,2026-07-06T00:00:01.677888,2.00559674,.00341035,55.3649,87.7155,118.3151,242.0701,0,U,40105,999,8645,0,-.13E-6,0
GSAT0201 (GALILEO 5),2014-050A,2026-07-05T04:52:57.756000,1.85520009,.1677026,48.8557,272.6971,180.0981,179.9258,0,U,40128,999,7865,0,-.32E-6,0
GSAT0202 (GALILEO 6),2014-050B,2026-07-05T23:56:58.855488,1.85520580,.16784838,48.8715,271.7502,180.8497,178.8850,0,U,40129,999,8083,0,-.31E-6,0
IRNSS-1C,2014-061A,2026-07-05T19:37:43.675968,1.00273822,.00221226,6.5640,88.5760,4.4783,208.1781,0,U,40269,999,4287,0,-.151E-5,0
GPS BIIF-8  (PRN 03),2014-068A,2026-07-02T09:05:07.844928,2.00577219,.00673707,56.9979,30.3698,71.1337,289.6561,0,U,40294,999,8551,0,-.59E-6,0
COSMOS 2501 (702K),2014-075A,2026-07-05T14:26:33.938016,2.13101464,.00226722,63.6180,189.7346,212.6730,147.2101,0,U,40315,999,9024,0,.105E-5,0
GPS BIIF-9  (PRN 26),2015-013A,2026-07-05T12:15:37.785600,2.00550305,.01100244,53.1669,203.4197,40.2805,320.5705,0,U,40534,999,8219,0,.87E-6,0
GSAT0203 (GALILEO 7),2015-017A,2026-07-03T15:17:27.453120,1.70476291,.0002385,56.7810,341.1480,260.5919,99.3760,0,U,40544,999,6948,0,-.75E-6,0
GSAT0204 (GALILEO 8),2015-017B,2026-07-04T11:30:32.846112,1.70475782,.0002451,56.7872,341.1436,236.0411,123.9323,0,U,40545,999,3254,0,-.73E-6,0
